{
  "type": "FeatureCollection",
  "name": "danube-budapest-regensburg",
  "features": [
    {"type":"Feature","properties":{"from":"Budapest","to":"Esztergom"},"geometry":{"type":"LineString","coordinates":[[19.0402,47.4979],[19.0756,47.6694],[18.9709,47.7854],[18.7403,47.7856]]}},
    {"type":"Feature","properties":{"from":"Esztergom","to":"Komárno"},"geometry":{"type":"LineString","coordinates":[[18.7403,47.7856],[18.5200,47.7700],[18.3180,47.7580],[18.1298,47.7636]]}},
    {"type":"Feature","properties":{"from":"Komárno","to":"Bratislava"},"geometry":{"type":"LineString","coordinates":[[18.1298,47.7636],[17.8200,47.7900],[17.5800,47.8900],[17.3000,48.0200],[17.1077,48.1486]]}},
    {"type":"Feature","properties":{"from":"Bratislava","to":"Vienna"},"geometry":{"type":"LineString","coordinates":[[17.1077,48.1486],[16.9450,48.1460],[16.7900,48.1350],[16.7000,48.1400],[16.5500,48.1700],[16.3738,48.2082]]}},
    {"type":"Feature","properties":{"from":"Vienna","to":"Wachau"},"geometry":{"type":"LineString","coordinates":[[16.3738,48.2082],[16.3250,48.3050],[16.1600,48.3250],[16.0580,48.3310],[15.8500,48.3700],[15.6000,48.4100],[15.5200,48.3950]]}},
    {"type":"Feature","properties":{"from":"Wachau","to":"Linz"},"geometry":{"type":"LineString","coordinates":[[15.5200,48.3950],[15.4300,48.3500],[15.3310,48.2270],[15.0840,48.1770],[14.8580,48.2280],[14.6500,48.2450],[14.5170,48.2410],[14.2861,48.3069]]}},
    {"type":"Feature","properties":{"from":"Linz","to":"Passau"},"geometry":{"type":"LineString","coordinates":[[14.2861,48.3069],[14.1740,48.3330],[14.0220,48.3640],[13.8700,48.4190],[13.7300,48.5000],[13.5700,48.5400],[13.4319,48.5667]]}},
    {"type":"Feature","properties":{"from":"Passau","to":"Vilshofen"},"geometry":{"type":"LineString","coordinates":[[13.4319,48.5667],[13.3600,48.5900],[13.3000,48.6100],[13.2220,48.6260],[13.1870,48.6340]]}},
    {"type":"Feature","properties":{"from":"Vilshofen","to":"Straubing"},"geometry":{"type":"LineString","coordinates":[[13.1870,48.6340],[13.0600,48.7600],[12.9600,48.8400],[12.7600,48.8800],[12.5730,48.8810]]}},
    {"type":"Feature","properties":{"from":"Straubing","to":"Regensburg"},"geometry":{"type":"LineString","coordinates":[[12.5730,48.8810],[12.4050,49.0000],[12.2050,49.0320],[12.0978,49.0195]]}}
  ]
}
